AQUA                    
1 27424U 02022A   26069.90888293  .00001276  00000+0  26444-3 0  9993
2 27424  98.4176  37.2960 0000556  84.9457 296.1349 14.61980270268914
CZ-4B R/B               
1 27432U 02024C   26069.78951473  .00000042  00000+0  44542-4 0  9991
2 27432  98.8837 123.1907 0050428  21.0882  88.5338 14.14547759229393
MIDORI II (ADEOS-II)    
1 27597U 02056A   26069.85377743  .00000391  00000+0  17141-3 0  9999
2 27597  98.7768  28.3393 0001537  40.8915 319.2382 14.29286173210462
H-2A R/B                
1 27601U 02056E   26069.88486167  .00000319  00000+0  12622-3 0  9998
2 27601  98.3204  30.2049 0070575 157.1407 218.3466 14.33761565214289
CZ-4B R/B               
1 28059U 03049C   26069.96518050  .00000458  00000+0  11663-3 0  9993
2 28059  98.6879  64.9200 0047321 226.9391 132.7839 14.55021465186789
CZ-2C R/B               
1 28222U 04012C   26069.76037629  .00063142  00000+0  64787-3 0  9996
2 28222  97.7219 135.1543 0012925 305.4485  54.5566 15.64642447204441
SL-16 R/B               
1 28353U 04021B   26069.87126084 -.00000255  00000+0 -10787-3 0  9996
2 28353  70.9996 230.0127 0004122   7.5173 352.6010 14.14597524123005
CZ-4B R/B               
1 28415U 04035C   26069.62907711  .00009699  00000+0  34129-3 0  9992
2 28415  97.3501 103.8600 0030802 328.0195  31.9175 15.29083634180057
CZ-2C R/B               
1 28480U 04046B   26069.74771209  .00000143  00000+0  67826-4 0  9996
2 28480  98.1981 344.6659 0139920 151.3284 209.5683 14.26992410108656
ARIANE 5 R/B            
1 28499U 04049H   26069.91265818  .00000945  00000+0  11052-3 0  9991
2 28499  98.2629 238.4154 0083850 347.9415  11.9790 14.85268345145973
CZ-2D R/B               
1 28738U 05024B   26069.99211293  .00048661  00000+0  59443-3 0  9990
2 28738  97.3603  85.1858 0005616  43.4109 316.7589 15.60281645139989
ALOS (DAICHI)           
1 28931U 06002A   26069.86446995  .00001808  00000+0  31098-3 0  9995
2 28931  98.1219  25.8140 0000866  57.3766 302.7524 14.69814887 73659
